NORAD_CAT_ID,OBJECT_NAME,OBJECT_TYPE,EPOCH,MEAN_MOTION,ECCENTRICITY,INCLINATION,RA_OF_ASC_NODE,ARG_OF_PERICENTER,MEAN_ANOMALY,BSTAR,MEAN_MOTION_DOT,MEAN_MOTION_DDOT,TLE_LINE0,TLE_LINE1,TLE_LINE2,SEMIMAJOR_AXIS,PERIOD,APOGEE,PERIGEE,DECAYED
52556.0,STARLINK-3763,PAYLOAD,2022-11-24 21:11:45,15.09412981,9.96e-05,53.2166,124.5496,111.4599,248.65,0.00018807,2.752e-05,0.0,0 STARLINK-3763,1 52556U 22051Z   22328.88316972  .00002752  00000-0  18807-3 0  9997,2 52556  53.2166 124.5496 0000996 111.4599 248.6500 15.09412981 30168,6916.13,95.401,538.683,537.306,0.0
52556.0,STARLINK-3763,PAYLOAD,2022-11-25 11:29:54,15.09420412,9.86e-05,53.2165,121.8718,112.489,247.6207,0.00025339,3.81e-05,0.0,0 STARLINK-3763,1 52556U 22051Z   22329.47910086  .00003810  00000-0  25339-3 0  9993,2 52556  53.2165 121.8718 0000986 112.4890 247.6207 15.09420412 30181,6916.107,95.401,538.654,537.29,0.0
52556.0,STARLINK-3763,PAYLOAD,2022-11-25 19:26:38,15.09429057,9.82e-05,53.2163,120.3842,110.8123,249.2974,0.0004018,6.215e-05,0.0,0 STARLINK-3763,1 52556U 22051Z   22329.81017093  .00006215  00000-0  40180-3 0  9990,2 52556  53.2163 120.3842 0000982 110.8123 249.2974 15.09429057 30237,6916.08,95.4,538.625,537.266,0.0
52556.0,STARLINK-3763,PAYLOAD,2022-11-26 03:23:23,15.09440192,9.81e-05,53.2164,118.8966,110.3702,249.7395,0.00059743,9.389e-05,0.0,0 STARLINK-3763,1 52556U 22051Z   22330.14123877  .00009389  00000-0  59743-3 0  9996,2 52556  53.2164 118.8966 0000981 110.3702 249.7395 15.09440192 30352,6916.045999999999,95.4,538.59,537.2330000000002,0.0
52556.0,STARLINK-3763,PAYLOAD,2022-11-26 09:44:46,15.09448942,9.56e-05,53.2163,117.7064,109.9317,250.1778,0.00070289,0.00011103,0.0,0 STARLINK-3763,1 52556U 22051Z   22330.40609177  .00011103  00000-0  70289-3 0  9992,2 52556  53.2163 117.7064 0000956 109.9317 250.1778 15.09448942 30325,6916.02,95.399,538.5459999999998,537.224,0.0
52556.0,STARLINK-3763,PAYLOAD,2022-11-26 19:16:50,15.09465036,9.44e-05,53.2161,115.9215,106.7688,253.3408,0.00087859,0.00013963,0.0,0 STARLINK-3763,1 52556U 22051Z   22330.80336801  .00013963  00000-0  87859-3 0  9994,2 52556  53.2161 115.9215 0000944 106.7688 253.3408 15.09465036 30456,6915.971,95.398,538.488,537.183,0.0
52556.0,STARLINK-3763,PAYLOAD,2022-11-27 09:34:57,15.09486621,9.23e-05,53.2164,113.2439,101.9638,258.1458,0.00095532,0.0001522,0.0,0 STARLINK-3763,1 52556U 22051Z   22331.39927510  .00015220  00000-0  95532-3 0  9997,2 52556  53.2164 113.2439 0000923 101.9638 258.1458 15.09486621 30470,6915.905,95.397,538.408,537.131,0.0
52556.0,STARLINK-3763,PAYLOAD,2022-11-27 19:07:01,15.09501466,9.1e-05,53.2165,111.4588,98.7478,261.3617,0.0010171,0.00016232,0.0,0 STARLINK-3763,1 52556U 22051Z   22331.79654192  .00016232  00000-0  10171-2 0  9993,2 52556  53.2165 111.4588 0000910  98.7478 261.3617 15.09501466 30532,6915.859,95.396,538.354,537.095,0.0
52556.0,STARLINK-3763,PAYLOAD,2022-11-28 03:03:44,15.09512347,9.12e-05,53.2165,109.9712,95.6873,264.4223,0.0010557,0.00016866,0.0,0 STARLINK-3763,1 52556U 22051Z   22332.12759557  .00016866  00000-0  10557-2 0  9993,2 52556  53.2165 109.9712 0000912  95.6873 264.4223 15.09512347 30650,6915.826,95.395,538.322,537.06,0.0
52556.0,STARLINK-3763,PAYLOAD,2022-11-28 09:25:06,15.09518855,9.28e-05,53.2164,108.7811,94.977,265.1329,0.00097737,0.00015593,0.0,0 STARLINK-3763,1 52556U 22051Z   22332.39243711  .00015593  00000-0  97737-3 0  9994,2 52556  53.2164 108.7811 0000928  94.9770 265.1329 15.09518855 30623,6915.806,95.395,538.313,537.029,0.0
52556.0,STARLINK-3763,PAYLOAD,2022-11-28 18:57:09,15.09522012,9e-05,53.2169,106.996,91.312,268.7976,0.00066117,0.00010448,0.0,0 STARLINK-3763,1 52556U 22051Z   22332.78969852  .00010448  00000-0  66117-3 0  9990,2 52556  53.2169 106.9960 0000900  91.3120 268.7976 15.09522012 30754,6915.797,95.394,538.284,537.039,0.0
52556.0,STARLINK-3763,PAYLOAD,2022-11-29 09:15:14,15.09532894,8.690000000000001e-05,53.2171,104.3176,95.7927,264.3164,0.00063128,9.964e-05,0.0,0 STARLINK-3763,1 52556U 22051Z   22333.38558647  .00009964  00000-0  63128-3 0  9993,2 52556  53.2171 104.3176 0000869  95.7927 264.3164 15.09532894 30777,6915.763000000001,95.394,538.229,537.0269999999998,0.0
52556.0,STARLINK-3763,PAYLOAD,2022-11-29 12:25:55,15.09535602,8.58e-05,53.2171,103.7226,95.6154,264.4937,0.00062703,9.896e-05,0.0,0 STARLINK-3763,1 52556U 22051Z   22333.51800524  .00009896  00000-0  62703-3 0  9994,2 52556  53.2171 103.7226 0000858  95.6154 264.4937 15.09535602 30796,6915.755,95.394,538.2130000000002,537.0269999999998,0.0
52556.0,STARLINK-3763,PAYLOAD,2022-11-30 09:05:21,15.09548326,8.56e-05,53.2173,99.8546,93.5441,266.565,0.00049265,7.713e-05,0.0,0 STARLINK-3763,1 52556U 22051Z   22334.37872364  .00007713  00000-0  49265-3 0  9994,2 52556  53.2173  99.8546 0000856  93.5441 266.5650 15.09548326 30996,6915.715999999999,95.393,538.173,536.989,0.0
52556.0,STARLINK-3763,PAYLOAD,2022-11-30 18:37:24,15.09555744,8.640000000000001e-05,53.2173,98.0698,89.4305,270.6787,0.00050218,7.87e-05,0.0,0 STARLINK-3763,1 52556U 22051Z   22334.77597528  .00007870  00000-0  50218-3 0  9998,2 52556  53.2173  98.0698 0000864  89.4305 270.6787 15.09555744 30985,6915.694,95.392,538.156,536.961,0.0
52556.0,STARLINK-3763,PAYLOAD,2022-12-01 08:55:27,15.09568292,8.18e-05,53.2172,95.3917,86.1759,273.9327,0.00053285,8.372e-05,0.0,0 STARLINK-3763,1 52556U 22051Z   22335.37184833  .00008372  00000-0  53285-3 0  9991,2 52556  53.2172  95.3917 0000818  86.1759 273.9327 15.09568292 31073,6915.655,95.392,538.086,536.9540000000002,0.0
52556.0,STARLINK-3763,PAYLOAD,2022-12-01 18:27:29,15.09595448,9.18e-05,53.2175,93.6066,85.4882,274.6215,0.0011523,0.00018482,0.0,0 STARLINK-3763,1 52556U 22051Z   22335.76908975  .00018482  00000-0  11523-2 0  9996,2 52556  53.2175  93.6066 0000918  85.4882 274.6215 15.09595448 31204,6915.571999999999,95.39,538.072,536.802,0.0
52556.0,STARLINK-3763,PAYLOAD,2022-12-02 08:45:31,15.096154,7.730000000000001e-05,53.2171,90.9282,87.9732,272.1349,0.00086751,0.00013841,0.0,0 STARLINK-3763,1 52556U 22051Z   22336.36494432  .00013841  00000-0  86751-3 0  9991,2 52556  53.2171  90.9282 0000773  87.9732 272.1349 15.09615400 31224,6915.511,95.389,537.911,536.842,0.0
52556.0,STARLINK-3763,PAYLOAD,2022-12-03 00:38:52,15.09633152,8.02e-05,53.2173,87.9526,88.9173,271.1911,0.00066437,0.00010532,0.0,0 STARLINK-3763,1 52556U 22051Z   22337.02699771  .00010532  00000-0  66437-3 0  9991,2 52556  53.2173  87.9526 0000802  88.9173 271.1911 15.09633152 31392,6915.456999999999,95.387,537.877,536.7669999999998,0.0
52556.0,STARLINK-3763,PAYLOAD,2022-12-03 13:21:33,15.09644124,7.8e-05,53.217,85.5719,85.2983,274.8099,0.00062041,9.818e-05,0.0,0 STARLINK-3763,1 52556U 22051Z   22337.55663623  .00009818  00000-0  62041-3 0  9998,2 52556  53.2170  85.5719 0000780  85.2983 274.8099 15.09644124 31401,6915.424,95.387,537.828,536.749,0.0
52556.0,STARLINK-3763,PAYLOAD,2022-12-03 16:32:13,15.09646762,7.65e-05,53.2168,84.9766,83.87100000000002,276.2369,0.00061873,9.792e-05,0.0,0 STARLINK-3763,1 52556U 22051Z   22337.68904536  .00009792  00000-0  61873-3 0  9996,2 52556  53.2168  84.9766 0000765  83.8710 276.2369 15.09646762 31426,6915.416,95.387,537.81,536.752,0.0
52556.0,STARLINK-3763,PAYLOAD,2022-12-04 06:50:13,15.09659329,7.759999999999999e-05,53.217,82.2985,82.0157,278.0923,0.00060344,9.545e-05,0.0,0 STARLINK-3763,1 52556U 22051Z   22338.28488292  .00009545  00000-0  60344-3 0  9997,2 52556  53.2170  82.2985 0000776  82.0157 278.0923 15.09659329 31587,6915.377,95.386,537.779,536.706,0.0
52556.0,STARLINK-3763,PAYLOAD,2022-12-04 13:11:33,15.09667875,7.6e-05,53.2169,81.1081,80.5057,279.6022,0.0006881,0.0001093,0.0,0 STARLINK-3763,1 52556U 22051Z   22338.54969713  .00010930  00000-0  68810-3 0  9994,2 52556  53.2169  81.1081 0000760  80.5057 279.6022 15.09667875 31554,6915.351,95.385,537.742,536.69,0.0
52556.0,STARLINK-3763,PAYLOAD,2022-12-04 14:46:53,15.09669406,7.58e-05,53.2171,80.8107,79.456,280.6518,0.00069054,0.0001097,0.0,0 STARLINK-3763,1 52556U 22051Z   22338.61590068  .00010970  00000-0  69054-3 0  9990,2 52556  53.2171  80.8107 0000758  79.4560 280.6518 15.09669406 31560,6915.346,95.385,537.736,536.687,0.0
52556.0,STARLINK-3763,PAYLOAD,2022-12-05 00:18:53,15.09684333,7.840000000000001e-05,53.2171,79.0252,76.1247,283.9833,0.00092408,0.00014793,0.0,0 STARLINK-3763,1 52556U 22051Z   22339.01311947  .00014793  00000-0  92408-3 0  9998,2 52556  53.2171  79.0252 0000784  76.1247 283.9833 15.09684333 31692,6915.301,95.384,537.7080000000002,536.624,0.0
52556.0,STARLINK-3763,PAYLOAD,2022-12-05 13:01:32,15.09704067,8.290000000000001e-05,53.2174,76.6447,71.9138,288.1945,0.001031,0.00016551,0.0,0 STARLINK-3763,1 52556U 22051Z   22339.54273833  .00016551  00000-0  10310-2 0  9992,2 52556  53.2174  76.6447 0000829  71.9138 288.1945 15.09704067 31706,6915.241,95.383,537.679,536.5319999999998,0.0
52556.0,STARLINK-3763,PAYLOAD,2022-12-05 17:47:32,15.09710415,8.329999999999999e-05,53.2173,75.7517,71.1132,288.9951,0.0010076,0.00016171,0.0,0 STARLINK-3763,1 52556U 22051Z   22339.74134391  .00016171  00000-0  10076-2 0  9996,2 52556  53.2173  75.7517 0000833  71.1132 288.9951 15.09710415 31736,6915.221,95.383,537.6619999999998,536.51,0.0
52556.0,STARLINK-3763,PAYLOAD,2022-12-06 12:51:29,15.09739371,9.15e-05,53.2176,72.181,65.7576,294.3512,0.0010176,0.00016348,0.0,0 STARLINK-3763,1 52556U 22051Z   22340.53575603  .00016348  00000-0  10176-2 0  9997,2 52556  53.2176  72.1810 0000915  65.7576 294.3512 15.09739371 31925,6915.1330000000025,95.381,537.63,536.365,0.0
52556.0,STARLINK-3763,PAYLOAD,2022-12-06 17:37:28,15.09744748,9.07e-05,53.2179,71.2882,65.1725,294.9362,0.00094582,0.00015174,0.0,0 STARLINK-3763,1 52556U 22051Z   22340.73435712  .00015174  00000-0  94582-3 0  9995,2 52556  53.2179  71.2882 0000907  65.1725 294.9362 15.09744748 31886,6915.116,95.38,537.609,536.354,0.0
